[{"OBJECT_NAME":"IRIDIUM 157","OBJECT_ID":"2018-030C","EPOCH":"2026-03-09T18:23:07.333440","MEAN_MOTION":14.34217888,"ECCENTRICITY":0.00021073,"INCLINATION":86.4009,"RA_OF_ASC_NODE":332.0022,"ARG_OF_PERICENTER":83.0005,"MEAN_ANOMALY":277.143,"EPHEMERIS_TYPE":0,"CLASSIFICATION_TYPE":"U","NORAD_CAT_ID":43251,"ELEMENT_SET_NO":999,"REV_AT_EPOCH":41588,"BSTAR":0.00012008452,"MEAN_MOTION_DOT":3.56e-6,"MEAN_MOTION_DDOT":0},{"OBJECT_NAME":"DELTA 1 DEB","OBJECT_ID":"1978-026FG","EPOCH":"2026-03-09T19:55:32.152800","MEAN_MOTION":14.20972856,"ECCENTRICITY":0.00989097,"INCLINATION":99.0695,"RA_OF_ASC_NODE":170.8586,"ARG_OF_PERICENTER":140.3983,"MEAN_ANOMALY":342.5196,"EPHEMERIS_TYPE":0,"CLASSIFICATION_TYPE":"U","NORAD_CAT_ID":13569,"ELEMENT_SET_NO":999,"REV_AT_EPOCH":26911,"BSTAR":0.0015647022,"MEAN_MOTION_DOT":3.517e-5,"MEAN_MOTION_DDOT":0}]
